{"type": "FeatureCollection", "features": [ {"type": "Feature", "properties": {"norad_id": 34432, "name": "COSMOS 2251 DEB", "group": "cosmos-2251-debris", "lat": -69.77259207210402, "lon": -39.07221853965561, "alt_km": 881.70986822124, "timestamp": "2025-12-20T07:33:51.207335+00:00", "meta": {"OBJECT_NAME": "COSMOS 2251 DEB", "OBJECT_ID": "1993-036RZ", "EPOCH": "2025-12-19T06:32:24.354240", "MEAN_MOTION": 14.02934229, "ECCENTRICITY": 0.0181953, "INCLINATION": 73.8292, "RA_OF_ASC_NODE": 90.8154, "ARG_OF_PERICENTER": 172.489, "MEAN_ANOMALY": 219.0361, "EPHEMERIS_TYPE": 0, "CLASSIFICATION_TYPE": "U", "NORAD_CAT_ID": 34432, "ELEMENT_SET_NO": 999, "REV_AT_EPOCH": 85776, "BSTAR": 0.00076949, "MEAN_MOTION_DOT": 1.356e-05, "MEAN_MOTION_DDOT": 0}, "tle": {"line1": "1 34432U 93036RZ  25353.27250410  .00001356  00000+0  76949-3 0  9998", "line2": "2 34432  73.8292  90.8154 0181953 172.4890 219.0361 14.02934229857765"}}, "geometry": {"type": "Point", "coordinates": [-39.07221853965561, -69.77259207210402]}}, {"type": "Feature", "properties": {"norad_id": 34433, "name": "COSMOS 2251 DEB", "group": "cosmos-2251-debris", "lat": -8.541230361942542, "lon": -36.00918174433307, "alt_km": 849.953190290069, "timestamp": "2025-12-20T07:33:51.207357+00:00", "meta": {"OBJECT_NAME": "COSMOS 2251 DEB", "OBJECT_ID": "1993-036SA", "EPOCH": "2025-12-19T10:15:55.503936", "MEAN_MOTION": 14.12879998, "ECCENTRICITY": 0.0152655, "INCLINATION": 74.0099, "RA_OF_ASC_NODE": 143.0939, "ARG_OF_PERICENTER": 279.7612, "MEAN_ANOMALY": 78.6318, "EPHEMERIS_TYPE": 0, "CLASSIFICATION_TYPE": "U", "NORAD_CAT_ID": 34433, "ELEMENT_SET_NO": 999, "REV_AT_EPOCH": 86044, "BSTAR": 0.00077538, "MEAN_MOTION_DOT": 1.585e-05, "MEAN_MOTION_DDOT": 0}, "tle": {"line1": "1 34433U 93036SA  25353.42772574  .00001585  00000+0  77538-3 0  9995", "line2": "2 34433  74.0099 143.0939 0152655 279.7612  78.6318 14.12879998860448"}}, "geometry": {"type": "Point", "coordinates": [-36.00918174433307, -8.541230361942542]}}, {"type": "Feature", "properties": {"norad_id": 34434, "name": "COSMOS 2251 DEB", "group": "cosmos-2251-debris", "lat": 4.321504122436843, "lon": 176.0042750058923, "alt_km": 781.3605783813373, "timestamp": "2025-12-20T07:33:51.207368+00:00", "meta": {"OBJECT_NAME": "COSMOS 2251 DEB", "OBJECT_ID": "1993-036SB", "EPOCH": "2025-12-19T23:58:36.685344", "MEAN_MOTION": 13.89851213, "ECCENTRICITY": 0.02740153, "INCLINATION": 74.0623, "RA_OF_ASC_NODE": 357.7791, "ARG_OF_PERICENTER": 133.3528, "MEAN_ANOMALY": 258.7576, "EPHEMERIS_TYPE": 0, "CLASSIFICATION_TYPE": "U", "NORAD_CAT_ID": 34434, "ELEMENT_SET_NO": 999, "REV_AT_EPOCH": 84067, "BSTAR": 0.0016482574, "MEAN_MOTION_DOT": 2.722e-05, "MEAN_MOTION_DDOT": 0}, "tle": {"line1": "1 34434U 93036SB  25353.99903571  .00002722  00000+0  16483-2 0  9996", "line2": "2 34434  74.0623 357.7791 0274015 133.3528 258.7576 13.89851213840671"}}, "geometry": {"type": "Point", "coordinates": [176.0042750058923, 4.321504122436843]}}, {"type": "Feature", "properties": {"norad_id": 34446, "name": "COSMOS 2251 DEB", "group": "cosmos-2251-debris", "lat": -1.7108695001776486, "lon": -136.43456174795256, "alt_km": 694.5035404803448, "timestamp": "2025-12-20T07:33:51.207378+00:00", "meta": {"OBJECT_NAME": "COSMOS 2251 DEB", "OBJECT_ID": "1993-036SP", "EPOCH": "2025-12-19T20:47:22.036992", "MEAN_MOTION": 14.49360404, "ECCENTRICITY": 0.0050812, "INCLINATION": 74.0418, "RA_OF_ASC_NODE": 43.9173, "ARG_OF_PERICENTER": 180.2524, "MEAN_ANOMALY": 179.862, "EPHEMERIS_TYPE": 0, "CLASSIFICATION_TYPE": "U", "NORAD_CAT_ID": 34446, "ELEMENT_SET_NO": 999, "REV_AT_EPOCH": 88797, "BSTAR": 8.9739793e-05, "MEAN_MOTION_DOT": 3.2e-06, "MEAN_MOTION_DDOT": 0}, "tle": {"line1": "1 34446U 93036SP  25353.86622728  .00000320  00000+0  89740-4 0  9997", "line2": "2 34446  74.0418  43.9173 0050812 180.2524 179.8620 14.49360404887979"}}, "geometry": {"type": "Point", "coordinates": [-136.43456174795256, -1.7108695001776486]}}, {"type": "Feature", "properties": {"norad_id": 34449, "name": "COSMOS 2251 DEB", "group": "cosmos-2251-debris", "lat": 42.53351094394881, "lon": -139.95200630253214, "alt_km": 565.928676777884, "timestamp": "2025-12-20T07:33:51.207388+00:00", "meta": {"OBJECT_NAME": "COSMOS 2251 DEB", "OBJECT_ID": "1993-036SS", "EPOCH": "2025-12-19T05:31:05.790432", "MEAN_MOTION": 14.95222496, "ECCENTRICITY": 0.0022749, "INCLINATION": 74.0328, "RA_OF_ASC_NODE": 57.4655, "ARG_OF_PERICENTER": 95.9476, "MEAN_ANOMALY": 319.8524, "EPHEMERIS_TYPE": 0, "CLASSIFICATION_TYPE": "U", "NORAD_CAT_ID": 34449, "ELEMENT_SET_NO": 999, "REV_AT_EPOCH": 88790, "BSTAR": 0.0015083, "MEAN_MOTION_DOT": 0.00016676, "MEAN_MOTION_DDOT": 0}, "tle": {"line1": "1 34449U 93036SS  25353.22992813  .00016676  00000+0  15083-2 0  9993", "line2": "2 34449  74.0328  57.4655 0022749  95.9476 319.8524 14.95222496887904"}}, "geometry": {"type": "Point", "coordinates": [-139.95200630253214, 42.53351094394881]}}, {"type": "Feature", "properties": {"norad_id": 34451, "name": "COSMOS 2251 DEB", "group": "cosmos-2251-debris", "lat": 51.63690054214493, "lon": -128.6018679472373, "alt_km": 561.0499933502015, "timestamp": "2025-12-20T07:33:51.207398+00:00", "meta": {"OBJECT_NAME": "COSMOS 2251 DEB", "OBJECT_ID": "1993-036SU", "EPOCH": "2025-12-19T05:19:40.196928", "MEAN_MOTION": 14.95927956, "ECCENTRICITY": 0.0023833, "INCLINATION": 74.0467, "RA_OF_ASC_NODE": 74.7893, "ARG_OF_PERICENTER": 90.4585, "MEAN_ANOMALY": 269.933, "EPHEMERIS_TYPE": 0, "CLASSIFICATION_TYPE": "U", "NORAD_CAT_ID": 34451, "ELEMENT_SET_NO": 999, "REV_AT_EPOCH": 88732, "BSTAR": 0.0016212, "MEAN_MOTION_DOT": 0.00018267, "MEAN_MOTION_DDOT": 0}, "tle": {"line1": "1 34451U 93036SU  25353.22199302  .00018267  00000+0  16212-2 0  9991", "line2": "2 34451  74.0467  74.7893 0023833  90.4585 269.9330 14.95927956887322"}}, "geometry": {"type": "Point", "coordinates": [-128.6018679472373, 51.63690054214493]}}, {"type": "Feature", "properties": {"norad_id": 34452, "name": "COSMOS 2251 DEB", "group": "cosmos-2251-debris", "lat": -63.761682793707486, "lon": 131.62331543820093, "alt_km": 507.9102974079269, "timestamp": "2025-12-20T07:33:51.207408+00:00", "meta": {"OBJECT_NAME": "COSMOS 2251 DEB", "OBJECT_ID": "1993-036SV", "EPOCH": "2025-12-19T22:53:45.216384", "MEAN_MOTION": 15.11858796, "ECCENTRICITY": 0.00651083, "INCLINATION": 74.0322, "RA_OF_ASC_NODE": 167.8868, "ARG_OF_PERICENTER": 242.6028, "MEAN_ANOMALY": 243.0192, "EPHEMERIS_TYPE": 0, "CLASSIFICATION_TYPE": "U", "NORAD_CAT_ID": 34452, "ELEMENT_SET_NO": 999, "REV_AT_EPOCH": 90771, "BSTAR": 0.00056089872, "MEAN_MOTION_DOT": 0.00010067, "MEAN_MOTION_DDOT": 0}, "tle": {"line1": "1 34452U 93036SV  25353.95399556  .00010067  00000+0  56090-3 0  9994", "line2": "2 34452  74.0322 167.8868 0065108 242.6028 243.0192 15.11858796907712"}}, "geometry": {"type": "Point", "coordinates": [131.62331543820093, -63.761682793707486]}}, {"type": "Feature", "properties": {"norad_id": 34454, "name": "COSMOS 2251 DEB", "group": "cosmos-2251-debris", "lat": 41.16402556105653, "lon": 69.21498856031924, "alt_km": 784.0817840901218, "timestamp": "2025-12-20T07:33:51.207419+00:00", "meta": {"OBJECT_NAME": "COSMOS 2251 DEB", "OBJECT_ID": "1993-036SX", "EPOCH": "2025-12-19T17:34:50.014848", "MEAN_MOTION": 14.38819172, "ECCENTRICITY": 0.00358111, "INCLINATION": 74.0588, "RA_OF_ASC_NODE": 264.7592, "ARG_OF_PERICENTER": 325.9584, "MEAN_ANOMALY": 33.9273, "EPHEMERIS_TYPE": 0, "CLASSIFICATION_TYPE": "U", "NORAD_CAT_ID": 34454, "ELEMENT_SET_NO": 999, "REV_AT_EPOCH": 88168, "BSTAR": 0.00017332803, "MEAN_MOTION_DOT": 5.11e-06, "MEAN_MOTION_DDOT": 0}, "tle": {"line1": "1 34454U 93036SX  25353.73252332  .00000511  00000+0  17333-3 0  9992", "line2": "2 34454  74.0588 264.7592 0035811 325.9584  33.9273 14.38819172881685"}}, "geometry": {"type": "Point", "coordinates": [69.21498856031924, 41.16402556105653]}}, {"type": "Feature", "properties": {"norad_id": 34459, "name": "COSMOS 2251 DEB", "group": "cosmos-2251-debris", "lat": 9.874289349017777, "lon": 58.10811562229486, "alt_km": 998.1448666568858, "timestamp": "2025-12-20T07:33:51.207429+00:00", "meta": {"OBJECT_NAME": "COSMOS 2251 DEB", "OBJECT_ID": "1993-036TC", "EPOCH": "2025-12-19T10:10:13.091232", "MEAN_MOTION": 14.00510026, "ECCENTRICITY": 0.0192116, "INCLINATION": 74.0787, "RA_OF_ASC_NODE": 242.4962, "ARG_OF_PERICENTER": 310.7776, "MEAN_ANOMALY": 47.6821, "EPHEMERIS_TYPE": 0, "CLASSIFICATION_TYPE": "U", "NORAD_CAT_ID": 34459, "ELEMENT_SET_NO": 999, "REV_AT_EPOCH": 85805, "BSTAR": 0.00028413, "MEAN_MOTION_DOT": 4.7e-06, "MEAN_MOTION_DDOT": 0}, "tle": {"line1": "1 34459U 93036TC  25353.42376263  .00000470  00000+0  28413-3 0  9998", "line2": "2 34459  74.0787 242.4962 0192116 310.7776  47.6821 14.00510026858053"}}, "geometry": {"type": "Point", "coordinates": [58.10811562229486, 9.874289349017777]}}, {"type": "Feature", "properties": {"norad_id": 34464, "name": "COSMOS 2251 DEB", "group": "cosmos-2251-debris", "lat": 6.152687330199588, "lon": -119.61064472112413, "alt_km": 480.01809259148195, "timestamp": "2025-12-20T07:33:51.207439+00:00", "meta": {"OBJECT_NAME": "COSMOS 2251 DEB", "OBJECT_ID": "1993-036TH", "EPOCH": "2025-12-19T15:05:33.885024", "MEAN_MOTION": 15.27991349, "ECCENTRICITY": 0.001486, "INCLINATION": 73.9894, "RA_OF_ASC_NODE": 63.623, "ARG_OF_PERICENTER": 245.1324, "MEAN_ANOMALY": 114.8333, "EPHEMERIS_TYPE": 0, "CLASSIFICATION_TYPE": "U", "NORAD_CAT_ID": 34464, "ELEMENT_SET_NO": 999, "REV_AT_EPOCH": 89945, "BSTAR": 0.0016369, "MEAN_MOTION_DOT": 0.00045089, "MEAN_MOTION_DDOT": 0}, "tle": {"line1": "1 34464U 93036TH  25353.62886441  .00045089  00000+0  16369-2 0  9991", "line2": "2 34464  73.9894  63.6230 0014860 245.1324 114.8333 15.27991349899451"}}, "geometry": {"type": "Point", "coordinates": [-119.61064472112413, 6.152687330199588]}}]}